{"fetched_at":"2026-03-30T06:02:59Z","count":15439,"tles":[{"name":"STARLINK-35420","line1":"1 66260U 25245AC  26087.67532856  .00011140  00000+0  38765-3 0  9991","line2":"2 66260  53.1581 195.6807 0001045  75.4832 284.6284 15.30202873 24168","category":"Starlink"}]}